0 JAS 1B (FUJI 2)
1 20480U 90013C   13281.88230507 -.00000004  00000-0  64426-4 0  5442
2 20480 099.0211 287.6201 0540159 203.3205 280.7788 12.83385887108892
0 JAS 1B (FUJI 2)
1 20480U 90013C   13283.03951669  .00000002  00000-0  77888-4 0  5454
2 20480 099.0210 288.5574 0540208 200.6964 227.3181 12.83385827109047
0 JAS 1B (FUJI 2)
1 20480U 90013C   13285.99381160 -.00000017  00000-0  34786-4 0  5473
2 20480 099.0207 290.9500 0540323 193.9973 196.7202 12.83386285109425
0 JAS 1B (FUJI 2)
1 20480U 90013C   13287.00608763 -.00000020  00000-0  27777-4 0  5485
2 20480 099.0206 291.7697 0540355 191.7020 193.6284 12.83386348109554
0 JAS 1B (FUJI 2)
1 20480U 90013C   13288.51801185 -.00000024  00000-0  17098-4 0  5495
2 20480 099.0206 292.9940 0540408 188.2741 339.0086 12.83386422109748
0 JAS 1B (FUJI 2)
1 20480U 90013C   13289.52160646 -.00000036  00000-0 -90927-5 0  5506
2 20480 099.0206 293.8066 0540445 185.9994 295.8072 12.83386519109877
0 JAS 1B (FUJI 2)
1 20480U 90013C   13290.53441037 -.00000045  00000-0 -30605-4 0  5512
2 20480 099.0208 294.6266 0540481 183.7037 295.1535 12.83386623110004
0 JAS 1B (FUJI 2)
1 20480U 90013C   13292.00274538 -.00000035  00000-0 -77913-5 0  5520
2 20480 099.0210 295.8155 0540529 180.3769 239.1397 12.83386643110191
0 JAS 1B (FUJI 2)
1 20480U 90013C   13293.00916656 -.00000026  00000-0  11542-4 0  5530
2 20480 099.0211 296.6303 0540566 178.0968 208.9978 12.83386491110327
0 JAS 1B (FUJI 2)
1 20480U 90013C   13294.03178943 -.00000021  00000-0  22787-4 0  5542
2 20480 099.0212 297.4583 0540611 175.7795 253.7120 12.83386338110451
0 JAS 1B (FUJI 2)
1 20480U 90013C   13295.04622146 -.00000019  00000-0  27080-4 0  5552
2 20480 099.0213 298.2796 0540651 173.4812 260.5813 12.83386279110589
